{"type":"FeatureCollection","features":[{"type":"Feature","geometry":{"type":"Point","coordinates":[37.6136,55.7541]},"properties":{"name":"Moscou","pop":10452000,"capital":true,"iso":"RU","rank":1}},{"type":"Feature","geometry":{"type":"Point","coordinates":[-0.1187,51.5019]},"properties":{"name":"Londres","pop":8567000,"capital":true,"iso":"GB","rank":1}},{"type":"Feature","geometry":{"type":"Point","coordinates":[-3.6853,40.402]},"properties":{"name":"Madrid","pop":5567000,"capital":true,"iso":"ES","rank":1}},{"type":"Feature","geometry":{"type":"Point","coordinates":[32.8624,39.9292]},"properties":{"name":"Ankara","pop":3716000,"capital":true,"iso":"TR","rank":1}},{"type":"Feature","geometry":{"type":"Point","coordinates":[13.3996,52.5238]},"properties":{"name":"Berlin","pop":3406000,"capital":true,"iso":"DE","rank":1}},{"type":"Feature","geometry":{"type":"Point","coordinates":[3.0486,36.765]},"properties":{"name":"Alger","pop":3354000,"capital":true,"iso":"DZ","rank":1}},{"type":"Feature","geometry":{"type":"Point","coordinates":[12.4813,41.8979]},"properties":{"name":"Rome","pop":3339000,"capital":true,"iso":"IT","rank":1}},{"type":"Feature","geometry":{"type":"Point","coordinates":[23.7314,37.9853]},"properties":{"name":"Athènes","pop":3242000,"capital":true,"iso":"GR","rank":1}},{"type":"Feature","geometry":{"type":"Point","coordinates":[-9.1468,38.7247]},"properties":{"name":"Lisbonne","pop":2812000,"capital":true,"iso":"PT","rank":1}},{"type":"Feature","geometry":{"type":"Point","coordinates":[30.5147,50.4353]},"properties":{"name":"Kiev","pop":2709000,"capital":true,"iso":"UA","rank":1}},{"type":"Feature","geometry":{"type":"Point","coordinates":[10.1797,36.8028]},"properties":{"name":"Tunis","pop":2412500,"capital":true,"iso":"TN","rank":1}},{"type":"Feature","geometry":{"type":"Point","coordinates":[16.3647,48.202]},"properties":{"name":"Vienne","pop":2400000,"capital":true,"iso":"AT","rank":1}},{"type":"Feature","geometry":{"type":"Point","coordinates":[26.098,44.4353]},"properties":{"name":"Bucarest","pop":1942000,"capital":true,"iso":"RO","rank":1}},{"type":"Feature","geometry":{"type":"Point","coordinates":[27.5647,53.9019]},"properties":{"name":"Minsk","pop":1805000,"capital":true,"iso":"BY","rank":1}},{"type":"Feature","geometry":{"type":"Point","coordinates":[4.3314,50.8353]},"properties":{"name":"Bruxelles","pop":1743000,"capital":true,"iso":"BE","rank":1}},{"type":"Feature","geometry":{"type":"Point","coordinates":[20.9981,52.2519]},"properties":{"name":"Varsovie","pop":1707000,"capital":true,"iso":"PL","rank":1}},{"type":"Feature","geometry":{"type":"Point","coordinates":[19.0814,47.502]},"properties":{"name":"Budapest","pop":1679000,"capital":true,"iso":"HU","rank":1}},{"type":"Feature","geometry":{"type":"Point","coordinates":[18.0954,59.3527]},"properties":{"name":"Stockholm","pop":1264000,"capital":true,"iso":"SE","rank":1}},{"type":"Feature","geometry":{"type":"Point","coordinates":[23.3147,42.6853]},"properties":{"name":"Sofia","pop":1185000,"capital":true,"iso":"BG","rank":1}},{"type":"Feature","geometry":{"type":"Point","coordinates":[14.464,50.0853]},"properties":{"name":"Prague","pop":1162000,"capital":true,"iso":"CZ","rank":1}},{"type":"Feature","geometry":{"type":"Point","coordinates":[24.9322,60.1775]},"properties":{"name":"Helsinki","pop":1115000,"capital":true,"iso":"FI","rank":1}},{"type":"Feature","geometry":{"type":"Point","coordinates":[20.466,44.8206]},"properties":{"name":"Belgrade","pop":1099000,"capital":true,"iso":"RS","rank":1}},{"type":"Feature","geometry":{"type":"Point","coordinates":[12.5615,55.6805]},"properties":{"name":"Copenhague","pop":1085000,"capital":true,"iso":"DK","rank":1}},{"type":"Feature","geometry":{"type":"Point","coordinates":[-6.2509,53.335]},"properties":{"name":"Dublin","pop":1059000,"capital":true,"iso":"IE","rank":1}},{"type":"Feature","geometry":{"type":"Point","coordinates":[4.9147,52.3519]},"properties":{"name":"Amsterdam","pop":1031000,"capital":true,"iso":"NL","rank":1}},{"type":"Feature","geometry":{"type":"Point","coordinates":[19.8189,41.3275]},"properties":{"name":"Tirana","pop":895350,"capital":true,"iso":"AL","rank":1}},{"type":"Feature","geometry":{"type":"Point","coordinates":[10.748,59.9186]},"properties":{"name":"Oslo","pop":835000,"capital":true,"iso":"NO","rank":1}},{"type":"Feature","geometry":{"type":"Point","coordinates":[24.1,56.95]},"properties":{"name":"Riga","pop":742572,"capital":true,"iso":"LV","rank":1}},{"type":"Feature","geometry":{"type":"Point","coordinates":[16.0,45.8]},"properties":{"name":"Zagreb","pop":722526,"capital":true,"iso":"HR","rank":1}},{"type":"Feature","geometry":{"type":"Point","coordinates":[18.383,43.85]},"properties":{"name":"Sarajevo","pop":696731,"capital":true,"iso":"BA","rank":1}},{"type":"Feature","geometry":{"type":"Point","coordinates":[28.8577,47.005]},"properties":{"name":"Chișinău","pop":688134,"capital":true,"iso":"MD","rank":1}},{"type":"Feature","geometry":{"type":"Point","coordinates":[25.3166,54.6834]},"properties":{"name":"Vilnius","pop":542366,"capital":true,"iso":"LT","rank":1}},{"type":"Feature","geometry":{"type":"Point","coordinates":[21.4335,42.0]},"properties":{"name":"Skopje","pop":494087,"capital":true,"iso":"MK","rank":1}},{"type":"Feature","geometry":{"type":"Point","coordinates":[21.166,42.6667]},"properties":{"name":"Pristina","pop":465186,"capital":true,"iso":"-99","rank":1}},{"type":"Feature","geometry":{"type":"Point","coordinates":[17.117,48.15]},"properties":{"name":"Bratislava","pop":423737,"capital":true,"iso":"SK","rank":1}},{"type":"Feature","geometry":{"type":"Point","coordinates":[24.728,59.4339]},"properties":{"name":"Tallinn","pop":394024,"capital":true,"iso":"EE","rank":1}},{"type":"Feature","geometry":{"type":"Point","coordinates":[14.5147,35.8997]},"properties":{"name":"La Valette","pop":368250,"capital":true,"iso":"MT","rank":1}},{"type":"Feature","geometry":{"type":"Point","coordinates":[14.515,46.0553]},"properties":{"name":"Ljubljana","pop":314807,"capital":true,"iso":"SI","rank":1}},{"type":"Feature","geometry":{"type":"Point","coordinates":[7.467,46.9167]},"properties":{"name":"Bern","pop":275329,"capital":true,"iso":"CH","rank":1}},{"type":"Feature","geometry":{"type":"Point","coordinates":[33.3666,35.1667]},"properties":{"name":"Nicosie","pop":224300,"capital":true,"iso":"CY","rank":1}},{"type":"Feature","geometry":{"type":"Point","coordinates":[-21.95,64.15]},"properties":{"name":"Reykjavík","pop":166212,"capital":true,"iso":"IS","rank":1}},{"type":"Feature","geometry":{"type":"Point","coordinates":[19.2663,42.466]},"properties":{"name":"Podgorica","pop":145850,"capital":true,"iso":"ME","rank":1}},{"type":"Feature","geometry":{"type":"Point","coordinates":[6.13,49.6117]},"properties":{"name":"Luxembourg","pop":107260,"capital":true,"iso":"LU","rank":1}},{"type":"Feature","geometry":{"type":"Point","coordinates":[1.5165,42.5]},"properties":{"name":"Andorre-la-Vieille","pop":53998,"capital":true,"iso":"AD","rank":1}},{"type":"Feature","geometry":{"type":"Point","coordinates":[7.4069,43.7396]},"properties":{"name":"Monaco","pop":36371,"capital":true,"iso":"MC","rank":1}},{"type":"Feature","geometry":{"type":"Point","coordinates":[9.5167,47.1337]},"properties":{"name":"Vaduz","pop":36281,"capital":true,"iso":"LI","rank":1}},{"type":"Feature","geometry":{"type":"Point","coordinates":[12.4418,43.9361]},"properties":{"name":"San Marino","pop":29579,"capital":true,"iso":"SM","rank":1}},{"type":"Feature","geometry":{"type":"Point","coordinates":[12.4534,41.9033]},"properties":{"name":"Vatican City","pop":832,"capital":true,"iso":"VA","rank":1}},{"type":"Feature","geometry":{"type":"Point","coordinates":[29.0081,41.1069]},"properties":{"name":"Istanbul","pop":10061000,"capital":false,"iso":"TR","rank":2}},{"type":"Feature","geometry":{"type":"Point","coordinates":[2.1814,41.3852]},"properties":{"name":"Barcelone","pop":4920000,"capital":false,"iso":"ES","rank":2}},{"type":"Feature","geometry":{"type":"Point","coordinates":[30.3141,59.941]},"properties":{"name":"Saint-Pétersbourg","pop":4553000,"capital":false,"iso":"RU","rank":2}},{"type":"Feature","geometry":{"type":"Point","coordinates":[9.2031,45.4719]},"properties":{"name":"Milan","pop":2945000,"capital":false,"iso":"IT","rank":2}},{"type":"Feature","geometry":{"type":"Point","coordinates":[8.675,50.1]},"properties":{"name":"Francfort","pop":2895000,"capital":false,"iso":"DE","rank":2}},{"type":"Feature","geometry":{"type":"Point","coordinates":[37.1681,36.2319]},"properties":{"name":"Aleppo","pop":2738000,"capital":false,"iso":"SY","rank":2}},{"type":"Feature","geometry":{"type":"Point","coordinates":[27.1498,38.4381]},"properties":{"name":"Izmir","pop":2587000,"capital":false,"iso":"TR","rank":2}},{"type":"Feature","geometry":{"type":"Point","coordinates":[-1.9219,52.4769]},"properties":{"name":"Birmingham","pop":2285000,"capital":false,"iso":"GB","rank":2}},{"type":"Feature","geometry":{"type":"Point","coordinates":[14.2431,40.842]},"properties":{"name":"Naples","pop":2250000,"capital":false,"iso":"IT","rank":2}},{"type":"Feature","geometry":{"type":"Point","coordinates":[-2.2499,53.5024]},"properties":{"name":"Manchester","pop":2230000,"capital":false,"iso":"GB","rank":2}},{"type":"Feature","geometry":{"type":"Point","coordinates":[9.9981,53.552]},"properties":{"name":"Hambourg","pop":1757000,"capital":false,"iso":"DE","rank":2}},{"type":"Feature","geometry":{"type":"Point","coordinates":[7.668,45.0723]},"properties":{"name":"Turin","pop":1652000,"capital":false,"iso":"IT","rank":2}},{"type":"Feature","geometry":{"type":"Point","coordinates":[11.25,43.78]},"properties":{"name":"Florence","pop":1500000,"capital":false,"iso":"IT","rank":2}},{"type":"Feature","geometry":{"type":"Point","coordinates":[29.0681,40.2019]},"properties":{"name":"Bursa","pop":1492000,"capital":false,"iso":"TR","rank":2}},{"type":"Feature","geometry":{"type":"Point","coordinates":[36.2481,50.0019]},"properties":{"name":"Kharkiv","pop":1461000,"capital":false,"iso":"UA","rank":2}},{"type":"Feature","geometry":{"type":"Point","coordinates":[4.27,52.08]},"properties":{"name":"La Haye","pop":1406000,"capital":false,"iso":"NL","rank":2}},{"type":"Feature","geometry":{"type":"Point","coordinates":[35.3181,36.9969]},"properties":{"name":"Adana","pop":1293000,"capital":false,"iso":"TR","rank":2}},{"type":"Feature","geometry":{"type":"Point","coordinates":[11.573,48.1319]},"properties":{"name":"Munich","pop":1275000,"capital":false,"iso":"DE","rank":2}},{"type":"Feature","geometry":{"type":"Point","coordinates":[6.14,46.21]},"properties":{"name":"Genève","pop":1240000,"capital":false,"iso":"CH","rank":2}},{"type":"Feature","geometry":{"type":"Point","coordinates":[-5.98,37.405]},"properties":{"name":"Séville","pop":1212045,"capital":false,"iso":"ES","rank":2}},{"type":"Feature","geometry":{"type":"Point","coordinates":[-4.2527,55.8764]},"properties":{"name":"Glasgow","pop":1160000,"capital":false,"iso":"GB","rank":2}},{"type":"Feature","geometry":{"type":"Point","coordinates":[8.5481,47.3819]},"properties":{"name":"Zürich","pop":1108000,"capital":false,"iso":"CH","rank":2}},{"type":"Feature","geometry":{"type":"Point","coordinates":[39.7107,47.2366]},"properties":{"name":"Rostov","pop":1052000,"capital":false,"iso":"RU","rank":2}},{"type":"Feature","geometry":{"type":"Point","coordinates":[34.9981,48.4819]},"properties":{"name":"Dnipropetrovsk","pop":1050000,"capital":false,"iso":"UA","rank":2}},{"type":"Feature","geometry":{"type":"Point","coordinates":[30.7081,46.492]},"properties":{"name":"Odessa","pop":991000,"capital":false,"iso":"UA","rank":2}},{"type":"Feature","geometry":{"type":"Point","coordinates":[37.828,48.0019]},"properties":{"name":"Donetsk","pop":988000,"capital":false,"iso":"UA","rank":2}},{"type":"Feature","geometry":{"type":"Point","coordinates":[32.4731,37.877]},"properties":{"name":"Konya","pop":919000,"capital":false,"iso":"TR","rank":2}},{"type":"Feature","geometry":{"type":"Point","coordinates":[-2.93,43.25]},"properties":{"name":"Bilbao","pop":875552,"capital":false,"iso":"ES","rank":2}},{"type":"Feature","geometry":{"type":"Point","coordinates":[13.3481,38.127]},"properties":{"name":"Palerme","pop":863000,"capital":false,"iso":"IT","rank":2}},{"type":"Feature","geometry":{"type":"Point","coordinates":[-3.225,51.5]},"properties":{"name":"Cardiff","pop":861400,"capital":false,"iso":"GB","rank":2}},{"type":"Feature","geometry":{"type":"Point","coordinates":[39.268,51.7319]},"properties":{"name":"Voronezh","pop":844000,"capital":false,"iso":"RU","rank":2}},{"type":"Feature","geometry":{"type":"Point","coordinates":[22.8831,40.6981]},"properties":{"name":"Thessalonique","pop":828000,"capital":false,"iso":"GR","rank":2}},{"type":"Feature","geometry":{"type":"Point","coordinates":[-0.402,39.487]},"properties":{"name":"Valence","pop":808000,"capital":false,"iso":"ES","rank":2}},{"type":"Feature","geometry":{"type":"Point","coordinates":[24.03,49.835]},"properties":{"name":"Lvov","pop":803880,"capital":false,"iso":"UA","rank":2}},{"type":"Feature","geometry":{"type":"Point","coordinates":[-0.6219,35.7119]},"properties":{"name":"Oran","pop":798000,"capital":false,"iso":"DZ","rank":2}},{"type":"Feature","geometry":{"type":"Point","coordinates":[19.9581,50.0619]},"properties":{"name":"Kraków","pop":756000,"capital":false,"iso":"PL","rank":2}},{"type":"Feature","geometry":{"type":"Point","coordinates":[18.64,54.36]},"properties":{"name":"Gdansk","pop":740000,"capital":false,"iso":"PL","rank":2}},{"type":"Feature","geometry":{"type":"Point","coordinates":[15.08,37.5]},"properties":{"name":"Catania","pop":674542,"capital":false,"iso":"IT","rank":2}},{"type":"Feature","geometry":{"type":"Point","coordinates":[39.0,45.02]},"properties":{"name":"Krasnodar","pop":649851,"capital":false,"iso":"RU","rank":2}},{"type":"Feature","geometry":{"type":"Point","coordinates":[8.93,44.41]},"properties":{"name":"Gênes","pop":647497,"capital":false,"iso":"IT","rank":2}},{"type":"Feature","geometry":{"type":"Point","coordinates":[13.75,51.05]},"properties":{"name":"Dresde","pop":617515,"capital":false,"iso":"DE","rank":2}},{"type":"Feature","geometry":{"type":"Point","coordinates":[36.3437,41.28]},"properties":{"name":"Samsun","pop":609339,"capital":false,"iso":"TR","rank":2}},{"type":"Feature","geometry":{"type":"Point","coordinates":[39.87,57.62]},"properties":{"name":"Yaroslavl","pop":606730,"capital":false,"iso":"RU","rank":2}},{"type":"Feature","geometry":{"type":"Point","coordinates":[6.5999,36.36]},"properties":{"name":"Constantine","pop":605179,"capital":false,"iso":"DZ","rank":2}},{"type":"Feature","geometry":{"type":"Point","coordinates":[39.72,54.62]},"properties":{"name":"Ryazan","pop":520173,"capital":false,"iso":"RU","rank":2}},{"type":"Feature","geometry":{"type":"Point","coordinates":[-3.2191,55.9483]},"properties":{"name":"Édimbourg","pop":504966,"capital":false,"iso":"GB","rank":2}},{"type":"Feature","geometry":{"type":"Point","coordinates":[7.76,36.92]},"properties":{"name":"Annaba","pop":503524,"capital":false,"iso":"DZ","rank":2}},{"type":"Feature","geometry":{"type":"Point","coordinates":[16.8728,41.1142]},"properties":{"name":"Bari","pop":500577,"capital":false,"iso":"IT","rank":2}},{"type":"Feature","geometry":{"type":"Point","coordinates":[11.34,44.5004]},"properties":{"name":"Bologne","pop":488172,"capital":false,"iso":"IT","rank":2}},{"type":"Feature","geometry":{"type":"Point","coordinates":[-5.96,54.6]},"properties":{"name":"Belfast","pop":450406,"capital":false,"iso":"GB","rank":2}},{"type":"Feature","geometry":{"type":"Point","coordinates":[5.2469,46.2027]},"properties":{"name":"Bourg-en-Bresse","pop":42372,"capital":false,"iso":"FR","rank":3,"dept":"01","deptRank":1}},{"type":"Feature","geometry":{"type":"Point","coordinates":[5.6517,46.2599]},"properties":{"name":"Oyonnax","pop":22480,"capital":false,"iso":"FR","rank":4,"dept":"01","deptRank":2}},{"type":"Feature","geometry":{"type":"Point","coordinates":[3.279,49.8475]},"properties":{"name":"Saint-Quentin","pop":52813,"capital":false,"iso":"FR","rank":3,"dept":"02","deptRank":1}},{"type":"Feature","geometry":{"type":"Point","coordinates":[3.3235,49.3766]},"properties":{"name":"Soissons","pop":28046,"capital":false,"iso":"FR","rank":4,"dept":"02","deptRank":2}},{"type":"Feature","geometry":{"type":"Point","coordinates":[2.608,46.3428]},"properties":{"name":"Montluçon","pop":33147,"capital":false,"iso":"FR","rank":3,"dept":"03","deptRank":1}},{"type":"Feature","geometry":{"type":"Point","coordinates":[3.4254,46.1318]},"properties":{"name":"Vichy","pop":25115,"capital":false,"iso":"FR","rank":4,"dept":"03","deptRank":2}},{"type":"Feature","geometry":{"type":"Point","coordinates":[5.7896,43.8293]},"properties":{"name":"Manosque","pop":22718,"capital":false,"iso":"FR","rank":3,"dept":"04","deptRank":1}},{"type":"Feature","geometry":{"type":"Point","coordinates":[6.2495,44.0954]},"properties":{"name":"Digne-les-Bains","pop":17979,"capital":false,"iso":"FR","rank":4,"dept":"04","deptRank":2}},{"type":"Feature","geometry":{"type":"Point","coordinates":[6.0616,44.5797]},"properties":{"name":"Gap","pop":41293,"capital":false,"iso":"FR","rank":3,"dept":"05","deptRank":1}},{"type":"Feature","geometry":{"type":"Point","coordinates":[6.6536,44.8995]},"properties":{"name":"Briançon","pop":11411,"capital":false,"iso":"FR","rank":4,"dept":"05","deptRank":2}},{"type":"Feature","geometry":{"type":"Point","coordinates":[7.2528,43.7032]},"properties":{"name":"Nice","pop":357737,"capital":false,"iso":"FR","rank":3,"dept":"06","deptRank":1}},{"type":"Feature","geometry":{"type":"Point","coordinates":[7.1048,43.5823]},"properties":{"name":"Antibes","pop":77637,"capital":false,"iso":"FR","rank":4,"dept":"06","deptRank":2}},{"type":"Feature","geometry":{"type":"Point","coordinates":[4.6419,45.2449]},"properties":{"name":"Annonay","pop":17274,"capital":false,"iso":"FR","rank":3,"dept":"07","deptRank":1}},{"type":"Feature","geometry":{"type":"Point","coordinates":[4.3942,44.6107]},"properties":{"name":"Aubenas","pop":12416,"capital":false,"iso":"FR","rank":4,"dept":"07","deptRank":2}},{"type":"Feature","geometry":{"type":"Point","coordinates":[4.7304,49.7802]},"properties":{"name":"Charleville-Mézières","pop":45560,"capital":false,"iso":"FR","rank":3,"dept":"08","deptRank":1}},{"type":"Feature","geometry":{"type":"Point","coordinates":[4.9269,49.6993]},"properties":{"name":"Sedan","pop":16667,"capital":false,"iso":"FR","rank":4,"dept":"08","deptRank":2}},{"type":"Feature","geometry":{"type":"Point","coordinates":[1.6168,43.1278]},"properties":{"name":"Pamiers","pop":16473,"capital":false,"iso":"FR","rank":3,"dept":"09","deptRank":1}},{"type":"Feature","geometry":{"type":"Point","coordinates":[1.609,42.9701]},"properties":{"name":"Foix","pop":9934,"capital":false,"iso":"FR","rank":4,"dept":"09","deptRank":2}},{"type":"Feature","geometry":{"type":"Point","coordinates":[4.0761,48.2924]},"properties":{"name":"Troyes","pop":62088,"capital":false,"iso":"FR","rank":3,"dept":"10","deptRank":1}},{"type":"Feature","geometry":{"type":"Point","coordinates":[3.7158,48.5158]},"properties":{"name":"Romilly-sur-Seine","pop":14959,"capital":false,"iso":"FR","rank":4,"dept":"10","deptRank":2}},{"type":"Feature","geometry":{"type":"Point","coordinates":[3.0337,43.1493]},"properties":{"name":"Narbonne","pop":57587,"capital":false,"iso":"FR","rank":3,"dept":"11","deptRank":1}},{"type":"Feature","geometry":{"type":"Point","coordinates":[2.3491,43.2078]},"properties":{"name":"Carcassonne","pop":46080,"capital":false,"iso":"FR","rank":4,"dept":"11","deptRank":2}},{"type":"Feature","geometry":{"type":"Point","coordinates":[2.5699,44.3591]},"properties":{"name":"Rodez","pop":23981,"capital":false,"iso":"FR","rank":3,"dept":"12","deptRank":1}},{"type":"Feature","geometry":{"type":"Point","coordinates":[3.1176,44.0982]},"properties":{"name":"Millau","pop":22044,"capital":false,"iso":"FR","rank":4,"dept":"12","deptRank":2}},{"type":"Feature","geometry":{"type":"Point","coordinates":[5.3806,43.2803]},"properties":{"name":"Marseille","pop":886040,"capital":false,"iso":"FR","rank":3,"dept":"13","deptRank":1}},{"type":"Feature","geometry":{"type":"Point","coordinates":[5.3879,43.536]},"properties":{"name":"Aix-en-Provence","pop":149695,"capital":false,"iso":"FR","rank":4,"dept":"13","deptRank":2}},{"type":"Feature","geometry":{"type":"Point","coordinates":[-0.3722,49.1846]},"properties":{"name":"Caen","pop":109400,"capital":false,"iso":"FR","rank":3,"dept":"14","deptRank":1}},{"type":"Feature","geometry":{"type":"Point","coordinates":[-0.3324,49.2042]},"properties":{"name":"Hérouville-Saint-Clair","pop":23470,"capital":false,"iso":"FR","rank":4,"dept":"14","deptRank":2}},{"type":"Feature","geometry":{"type":"Point","coordinates":[2.4416,44.9281]},"properties":{"name":"Aurillac","pop":26214,"capital":false,"iso":"FR","rank":3,"dept":"15","deptRank":1}},{"type":"Feature","geometry":{"type":"Point","coordinates":[3.073,45.0251]},"properties":{"name":"Saint-Flour","pop":6391,"capital":false,"iso":"FR","rank":4,"dept":"15","deptRank":2}},{"type":"Feature","geometry":{"type":"Point","coordinates":[0.145,45.6458]},"properties":{"name":"Angoulême","pop":41908,"capital":false,"iso":"FR","rank":3,"dept":"16","deptRank":1}},{"type":"Feature","geometry":{"type":"Point","coordinates":[-0.3376,45.696]},"properties":{"name":"Cognac","pop":18532,"capital":false,"iso":"FR","rank":4,"dept":"16","deptRank":2}},{"type":"Feature","geometry":{"type":"Point","coordinates":[-1.1765,46.162]},"properties":{"name":"La Rochelle","pop":79851,"capital":false,"iso":"FR","rank":3,"dept":"17","deptRank":1}},{"type":"Feature","geometry":{"type":"Point","coordinates":[-0.6456,45.7462]},"properties":{"name":"Saintes","pop":25363,"capital":false,"iso":"FR","rank":4,"dept":"17","deptRank":2}},{"type":"Feature","geometry":{"type":"Point","coordinates":[2.3983,47.078]},"properties":{"name":"Bourges","pop":64186,"capital":false,"iso":"FR","rank":3,"dept":"18","deptRank":1}},{"type":"Feature","geometry":{"type":"Point","coordinates":[2.0776,47.2351]},"properties":{"name":"Vierzon","pop":25068,"capital":false,"iso":"FR","rank":4,"dept":"18","deptRank":2}},{"type":"Feature","geometry":{"type":"Point","coordinates":[1.5144,45.145]},"properties":{"name":"Brive-la-Gaillarde","pop":47095,"capital":false,"iso":"FR","rank":3,"dept":"19","deptRank":1}},{"type":"Feature","geometry":{"type":"Point","coordinates":[1.7663,45.2685]},"properties":{"name":"Tulle","pop":13401,"capital":false,"iso":"FR","rank":4,"dept":"19","deptRank":2}},{"type":"Feature","geometry":{"type":"Point","coordinates":[5.0322,47.3319]},"properties":{"name":"Dijon","pop":161830,"capital":false,"iso":"FR","rank":3,"dept":"21","deptRank":1}},{"type":"Feature","geometry":{"type":"Point","coordinates":[4.8421,47.0272]},"properties":{"name":"Beaune","pop":20352,"capital":false,"iso":"FR","rank":4,"dept":"21","deptRank":2}},{"type":"Feature","geometry":{"type":"Point","coordinates":[-2.7657,48.5108]},"properties":{"name":"Saint-Brieuc","pop":44364,"capital":false,"iso":"FR","rank":3,"dept":"22","deptRank":1}},{"type":"Feature","geometry":{"type":"Point","coordinates":[-3.4697,48.7454]},"properties":{"name":"Lannion","pop":20315,"capital":false,"iso":"FR","rank":4,"dept":"22","deptRank":2}},{"type":"Feature","geometry":{"type":"Point","coordinates":[1.8705,46.1585]},"properties":{"name":"Guéret","pop":12955,"capital":false,"iso":"FR","rank":3,"dept":"23","deptRank":1}},{"type":"Feature","geometry":{"type":"Point","coordinates":[1.4743,46.2308]},"properties":{"name":"La Souterraine","pop":4978,"capital":false,"iso":"FR","rank":4,"dept":"23","deptRank":2}},{"type":"Feature","geometry":{"type":"Point","coordinates":[0.7105,45.1939]},"properties":{"name":"Périgueux","pop":29055,"capital":false,"iso":"FR","rank":3,"dept":"24","deptRank":1}},{"type":"Feature","geometry":{"type":"Point","coordinates":[0.4883,44.8519]},"properties":{"name":"Bergerac","pop":27110,"capital":false,"iso":"FR","rank":4,"dept":"24","deptRank":2}},{"type":"Feature","geometry":{"type":"Point","coordinates":[6.0123,47.2602]},"properties":{"name":"Besançon","pop":118489,"capital":false,"iso":"FR","rank":3,"dept":"25","deptRank":1}},{"type":"Feature","geometry":{"type":"Point","coordinates":[6.7834,47.5168]},"properties":{"name":"Montbéliard","pop":24672,"capital":false,"iso":"FR","rank":4,"dept":"25","deptRank":2}},{"type":"Feature","geometry":{"type":"Point","coordinates":[4.9164,44.9234]},"properties":{"name":"Valence","pop":64458,"capital":false,"iso":"FR","rank":3,"dept":"26","deptRank":1}},{"type":"Feature","geometry":{"type":"Point","coordinates":[4.7454,44.5545]},"properties":{"name":"Montélimar","pop":40595,"capital":false,"iso":"FR","rank":4,"dept":"26","deptRank":2}},{"type":"Feature","geometry":{"type":"Point","coordinates":[1.1406,49.018]},"properties":{"name":"Évreux","pop":49360,"capital":false,"iso":"FR","rank":3,"dept":"27","deptRank":1}},{"type":"Feature","geometry":{"type":"Point","coordinates":[1.4827,49.0921]},"properties":{"name":"Vernon","pop":25290,"capital":false,"iso":"FR","rank":4,"dept":"27","deptRank":2}},{"type":"Feature","geometry":{"type":"Point","coordinates":[1.5046,48.4481]},"properties":{"name":"Chartres","pop":38324,"capital":false,"iso":"FR","rank":3,"dept":"28","deptRank":1}},{"type":"Feature","geometry":{"type":"Point","coordinates":[1.3578,48.7482]},"properties":{"name":"Dreux","pop":31543,"capital":false,"iso":"FR","rank":4,"dept":"28","deptRank":2}},{"type":"Feature","geometry":{"type":"Point","coordinates":[-4.4996,48.4085]},"properties":{"name":"Brest","pop":142346,"capital":false,"iso":"FR","rank":3,"dept":"29","deptRank":1}},{"type":"Feature","geometry":{"type":"Point","coordinates":[-4.0972,47.9982]},"properties":{"name":"Quimper","pop":64385,"capital":false,"iso":"FR","rank":4,"dept":"29","deptRank":2}},{"type":"Feature","geometry":{"type":"Point","coordinates":[8.7058,41.9228]},"properties":{"name":"Ajaccio","pop":76320,"capital":false,"iso":"FR","rank":3,"dept":"2A","deptRank":1}},{"type":"Feature","geometry":{"type":"Point","coordinates":[9.2732,41.5849]},"properties":{"name":"Porto-Vecchio","pop":11198,"capital":false,"iso":"FR","rank":4,"dept":"2A","deptRank":2}},{"type":"Feature","geometry":{"type":"Point","coordinates":[9.424,42.6861]},"properties":{"name":"Bastia","pop":46867,"capital":false,"iso":"FR","rank":3,"dept":"2B","deptRank":1}},{"type":"Feature","geometry":{"type":"Point","coordinates":[9.4546,42.5809]},"properties":{"name":"Borgo","pop":10311,"capital":false,"iso":"FR","rank":4,"dept":"2B","deptRank":2}},{"type":"Feature","geometry":{"type":"Point","coordinates":[4.3429,43.8322]},"properties":{"name":"Nîmes","pop":151839,"capital":false,"iso":"FR","rank":3,"dept":"30","deptRank":1}},{"type":"Feature","geometry":{"type":"Point","coordinates":[4.0905,44.125]},"properties":{"name":"Alès","pop":46125,"capital":false,"iso":"FR","rank":4,"dept":"30","deptRank":2}},{"type":"Feature","geometry":{"type":"Point","coordinates":[1.4328,43.6007]},"properties":{"name":"Toulouse","pop":514819,"capital":false,"iso":"FR","rank":3,"dept":"31","deptRank":1}},{"type":"Feature","geometry":{"type":"Point","coordinates":[1.3245,43.6116]},"properties":{"name":"Colomiers","pop":40882,"capital":false,"iso":"FR","rank":4,"dept":"31","deptRank":2}},{"type":"Feature","geometry":{"type":"Point","coordinates":[0.5673,43.6602]},"properties":{"name":"Auch","pop":22428,"capital":false,"iso":"FR","rank":3,"dept":"32","deptRank":1}},{"type":"Feature","geometry":{"type":"Point","coordinates":[1.0826,43.6159]},"properties":{"name":"L'Isle-Jourdain","pop":9537,"capital":false,"iso":"FR","rank":4,"dept":"32","deptRank":2}},{"type":"Feature","geometry":{"type":"Point","coordinates":[-0.5848,44.8624]},"properties":{"name":"Bordeaux","pop":267991,"capital":false,"iso":"FR","rank":3,"dept":"33","deptRank":1}},{"type":"Feature","geometry":{"type":"Point","coordinates":[-0.682,44.8313]},"properties":{"name":"Mérignac","pop":78090,"capital":false,"iso":"FR","rank":4,"dept":"33","deptRank":2}},{"type":"Feature","geometry":{"type":"Point","coordinates":[3.8742,43.61]},"properties":{"name":"Montpellier","pop":310240,"capital":false,"iso":"FR","rank":3,"dept":"34","deptRank":1}},{"type":"Feature","geometry":{"type":"Point","coordinates":[3.2342,43.3481]},"properties":{"name":"Béziers","pop":81545,"capital":false,"iso":"FR","rank":4,"dept":"34","deptRank":2}},{"type":"Feature","geometry":{"type":"Point","coordinates":[-1.6884,48.1159]},"properties":{"name":"Rennes","pop":230890,"capital":false,"iso":"FR","rank":3,"dept":"35","deptRank":1}},{"type":"Feature","geometry":{"type":"Point","coordinates":[-2.0066,48.6465]},"properties":{"name":"Saint-Malo","pop":47439,"capital":false,"iso":"FR","rank":4,"dept":"35","deptRank":2}},{"type":"Feature","geometry":{"type":"Point","coordinates":[1.6903,46.8023]},"properties":{"name":"Châteauroux","pop":42963,"capital":false,"iso":"FR","rank":3,"dept":"36","deptRank":1}},{"type":"Feature","geometry":{"type":"Point","coordinates":[2.0077,46.9447]},"properties":{"name":"Issoudun","pop":11159,"capital":false,"iso":"FR","rank":4,"dept":"36","deptRank":2}},{"type":"Feature","geometry":{"type":"Point","coordinates":[0.6949,47.3943]},"properties":{"name":"Tours","pop":139259,"capital":false,"iso":"FR","rank":3,"dept":"37","deptRank":1}},{"type":"Feature","geometry":{"type":"Point","coordinates":[0.6544,47.3374]},"properties":{"name":"Joué-lès-Tours","pop":38423,"capital":false,"iso":"FR","rank":4,"dept":"37","deptRank":2}},{"type":"Feature","geometry":{"type":"Point","coordinates":[5.7155,45.1842]},"properties":{"name":"Grenoble","pop":156140,"capital":false,"iso":"FR","rank":3,"dept":"38","deptRank":1}},{"type":"Feature","geometry":{"type":"Point","coordinates":[5.7646,45.1782]},"properties":{"name":"Saint-Martin-d'Hères","pop":37695,"capital":false,"iso":"FR","rank":4,"dept":"38","deptRank":2}},{"type":"Feature","geometry":{"type":"Point","coordinates":[5.5024,47.0739]},"properties":{"name":"Dole","pop":23840,"capital":false,"iso":"FR","rank":3,"dept":"39","deptRank":1}},{"type":"Feature","geometry":{"type":"Point","coordinates":[5.5574,46.6758]},"properties":{"name":"Lons-le-Saunier","pop":16618,"capital":false,"iso":"FR","rank":4,"dept":"39","deptRank":2}},{"type":"Feature","geometry":{"type":"Point","coordinates":[-0.5009,43.8931]},"properties":{"name":"Mont-de-Marsan","pop":31592,"capital":false,"iso":"FR","rank":3,"dept":"40","deptRank":1}},{"type":"Feature","geometry":{"type":"Point","coordinates":[-1.0637,43.7025]},"properties":{"name":"Dax","pop":22109,"capital":false,"iso":"FR","rank":4,"dept":"40","deptRank":2}},{"type":"Feature","geometry":{"type":"Point","coordinates":[1.3049,47.5813]},"properties":{"name":"Blois","pop":47219,"capital":false,"iso":"FR","rank":3,"dept":"41","deptRank":1}},{"type":"Feature","geometry":{"type":"Point","coordinates":[1.7368,47.3725]},"properties":{"name":"Romorantin-Lanthenay","pop":18373,"capital":false,"iso":"FR","rank":4,"dept":"41","deptRank":2}},{"type":"Feature","geometry":{"type":"Point","coordinates":[4.3665,45.4241]},"properties":{"name":"Saint-Étienne","pop":173136,"capital":false,"iso":"FR","rank":3,"dept":"42","deptRank":1}},{"type":"Feature","geometry":{"type":"Point","coordinates":[4.5082,45.4687]},"properties":{"name":"Saint-Chamond","pop":35646,"capital":false,"iso":"FR","rank":4,"dept":"42","deptRank":2}},{"type":"Feature","geometry":{"type":"Point","coordinates":[3.8973,45.0283]},"properties":{"name":"Le Puy-en-Velay","pop":18540,"capital":false,"iso":"FR","rank":3,"dept":"43","deptRank":1}},{"type":"Feature","geometry":{"type":"Point","coordinates":[4.1856,45.2857]},"properties":{"name":"Monistrol-sur-Loire","pop":8823,"capital":false,"iso":"FR","rank":4,"dept":"43","deptRank":2}},{"type":"Feature","geometry":{"type":"Point","coordinates":[-1.5603,47.2382]},"properties":{"name":"Nantes","pop":327734,"capital":false,"iso":"FR","rank":3,"dept":"44","deptRank":1}},{"type":"Feature","geometry":{"type":"Point","coordinates":[-2.2392,47.2768]},"properties":{"name":"Saint-Nazaire","pop":74568,"capital":false,"iso":"FR","rank":4,"dept":"44","deptRank":2}},{"type":"Feature","geometry":{"type":"Point","coordinates":[1.9122,47.8734]},"properties":{"name":"Orléans","pop":116357,"capital":false,"iso":"FR","rank":3,"dept":"45","deptRank":1}},{"type":"Feature","geometry":{"type":"Point","coordinates":[1.8913,47.8559]},"properties":{"name":"Olivet","pop":23507,"capital":false,"iso":"FR","rank":4,"dept":"45","deptRank":2}},{"type":"Feature","geometry":{"type":"Point","coordinates":[1.439,44.4565]},"properties":{"name":"Cahors","pop":20050,"capital":false,"iso":"FR","rank":3,"dept":"46","deptRank":1}},{"type":"Feature","geometry":{"type":"Point","coordinates":[2.0231,44.6067]},"properties":{"name":"Figeac","pop":9793,"capital":false,"iso":"FR","rank":4,"dept":"46","deptRank":2}},{"type":"Feature","geometry":{"type":"Point","coordinates":[0.6302,44.201]},"properties":{"name":"Agen","pop":32801,"capital":false,"iso":"FR","rank":3,"dept":"47","deptRank":1}},{"type":"Feature","geometry":{"type":"Point","coordinates":[0.7484,44.4183]},"properties":{"name":"Villeneuve-sur-Lot","pop":22350,"capital":false,"iso":"FR","rank":4,"dept":"47","deptRank":2}},{"type":"Feature","geometry":{"type":"Point","coordinates":[3.4909,44.5349]},"properties":{"name":"Mende","pop":12464,"capital":false,"iso":"FR","rank":3,"dept":"48","deptRank":1}},{"type":"Feature","geometry":{"type":"Point","coordinates":[3.2878,44.5549]},"properties":{"name":"Marvejols","pop":4764,"capital":false,"iso":"FR","rank":4,"dept":"48","deptRank":2}},{"type":"Feature","geometry":{"type":"Point","coordinates":[-0.5629,47.4819]},"properties":{"name":"Angers","pop":159022,"capital":false,"iso":"FR","rank":3,"dept":"49","deptRank":1}},{"type":"Feature","geometry":{"type":"Point","coordinates":[-0.875,47.0358]},"properties":{"name":"Cholet","pop":54404,"capital":false,"iso":"FR","rank":4,"dept":"49","deptRank":2}},{"type":"Feature","geometry":{"type":"Point","coordinates":[-1.6356,49.6277]},"properties":{"name":"Cherbourg-en-Cotentin","pop":78258,"capital":false,"iso":"FR","rank":3,"dept":"50","deptRank":1}},{"type":"Feature","geometry":{"type":"Point","coordinates":[-1.0812,49.1123]},"properties":{"name":"Saint-Lô","pop":19471,"capital":false,"iso":"FR","rank":4,"dept":"50","deptRank":2}},{"type":"Feature","geometry":{"type":"Point","coordinates":[4.0551,49.2535]},"properties":{"name":"Reims","pop":177674,"capital":false,"iso":"FR","rank":3,"dept":"51","deptRank":1}},{"type":"Feature","geometry":{"type":"Point","coordinates":[4.3801,48.9656]},"properties":{"name":"Châlons-en-Champagne","pop":42971,"capital":false,"iso":"FR","rank":4,"dept":"51","deptRank":2}},{"type":"Feature","geometry":{"type":"Point","coordinates":[4.9399,48.6319]},"properties":{"name":"Saint-Dizier","pop":22858,"capital":false,"iso":"FR","rank":3,"dept":"52","deptRank":1}},{"type":"Feature","geometry":{"type":"Point","coordinates":[5.1566,48.0965]},"properties":{"name":"Chaumont","pop":20827,"capital":false,"iso":"FR","rank":4,"dept":"52","deptRank":2}},{"type":"Feature","geometry":{"type":"Point","coordinates":[-0.7692,48.0578]},"properties":{"name":"Laval","pop":49400,"capital":false,"iso":"FR","rank":3,"dept":"53","deptRank":1}},{"type":"Feature","geometry":{"type":"Point","coordinates":[-0.701,47.821]},"properties":{"name":"Château-Gontier-sur-Mayenne","pop":16584,"capital":false,"iso":"FR","rank":4,"dept":"53","deptRank":2}},{"type":"Feature","geometry":{"type":"Point","coordinates":[6.1734,48.6881]},"properties":{"name":"Nancy","pop":103671,"capital":false,"iso":"FR","rank":3,"dept":"54","deptRank":1}},{"type":"Feature","geometry":{"type":"Point","coordinates":[6.1603,48.66]},"properties":{"name":"Vandœuvre-lès-Nancy","pop":29942,"capital":false,"iso":"FR","rank":4,"dept":"54","deptRank":2}},{"type":"Feature","geometry":{"type":"Point","coordinates":[5.3609,49.144]},"properties":{"name":"Verdun","pop":16890,"capital":false,"iso":"FR","rank":3,"dept":"55","deptRank":1}},{"type":"Feature","geometry":{"type":"Point","coordinates":[5.1732,48.7628]},"properties":{"name":"Bar-le-Duc","pop":14607,"capital":false,"iso":"FR","rank":4,"dept":"55","deptRank":2}},{"type":"Feature","geometry":{"type":"Point","coordinates":[-3.3799,47.7494]},"properties":{"name":"Lorient","pop":58329,"capital":false,"iso":"FR","rank":3,"dept":"56","deptRank":1}},{"type":"Feature","geometry":{"type":"Point","coordinates":[-2.7485,47.6577]},"properties":{"name":"Vannes","pop":55790,"capital":false,"iso":"FR","rank":4,"dept":"56","deptRank":2}},{"type":"Feature","geometry":{"type":"Point","coordinates":[6.1962,49.1048]},"properties":{"name":"Metz","pop":122572,"capital":false,"iso":"FR","rank":3,"dept":"57","deptRank":1}},{"type":"Feature","geometry":{"type":"Point","coordinates":[6.1443,49.3718]},"properties":{"name":"Thionville","pop":42658,"capital":false,"iso":"FR","rank":4,"dept":"57","deptRank":2}},{"type":"Feature","geometry":{"type":"Point","coordinates":[3.1598,46.9852]},"properties":{"name":"Nevers","pop":33085,"capital":false,"iso":"FR","rank":3,"dept":"58","deptRank":1}},{"type":"Feature","geometry":{"type":"Point","coordinates":[2.9419,47.414]},"properties":{"name":"Cosne-Cours-sur-Loire","pop":9733,"capital":false,"iso":"FR","rank":4,"dept":"58","deptRank":2}},{"type":"Feature","geometry":{"type":"Point","coordinates":[3.0468,50.6311]},"properties":{"name":"Lille","pop":238246,"capital":false,"iso":"FR","rank":3,"dept":"59","deptRank":1}},{"type":"Feature","geometry":{"type":"Point","coordinates":[3.1577,50.721]},"properties":{"name":"Tourcoing","pop":98772,"capital":false,"iso":"FR","rank":4,"dept":"59","deptRank":2}},{"type":"Feature","geometry":{"type":"Point","coordinates":[2.0877,49.4425]},"properties":{"name":"Beauvais","pop":55550,"capital":false,"iso":"FR","rank":3,"dept":"60","deptRank":1}},{"type":"Feature","geometry":{"type":"Point","coordinates":[2.8547,49.4006]},"properties":{"name":"Compiègne","pop":40761,"capital":false,"iso":"FR","rank":4,"dept":"60","deptRank":2}},{"type":"Feature","geometry":{"type":"Point","coordinates":[0.0923,48.431]},"properties":{"name":"Alençon","pop":25490,"capital":false,"iso":"FR","rank":3,"dept":"61","deptRank":1}},{"type":"Feature","geometry":{"type":"Point","coordinates":[-0.5603,48.7389]},"properties":{"name":"Flers","pop":14432,"capital":false,"iso":"FR","rank":4,"dept":"61","deptRank":2}},{"type":"Feature","geometry":{"type":"Point","coordinates":[1.869,50.9523]},"properties":{"name":"Calais","pop":67571,"capital":false,"iso":"FR","rank":3,"dept":"62","deptRank":1}},{"type":"Feature","geometry":{"type":"Point","coordinates":[2.7679,50.2893]},"properties":{"name":"Arras","pop":42875,"capital":false,"iso":"FR","rank":4,"dept":"62","deptRank":2}},{"type":"Feature","geometry":{"type":"Point","coordinates":[3.1127,45.787]},"properties":{"name":"Clermont-Ferrand","pop":146351,"capital":false,"iso":"FR","rank":3,"dept":"63","deptRank":1}},{"type":"Feature","geometry":{"type":"Point","coordinates":[3.1885,45.742]},"properties":{"name":"Cournon-d'Auvergne","pop":19951,"capital":false,"iso":"FR","rank":4,"dept":"63","deptRank":2}},{"type":"Feature","geometry":{"type":"Point","coordinates":[-0.3435,43.3219]},"properties":{"name":"Pau","pop":80441,"capital":false,"iso":"FR","rank":3,"dept":"64","deptRank":1}},{"type":"Feature","geometry":{"type":"Point","coordinates":[-1.4611,43.4844]},"properties":{"name":"Bayonne","pop":54306,"capital":false,"iso":"FR","rank":4,"dept":"64","deptRank":2}},{"type":"Feature","geometry":{"type":"Point","coordinates":[0.0653,43.2387]},"properties":{"name":"Tarbes","pop":44399,"capital":false,"iso":"FR","rank":3,"dept":"65","deptRank":1}},{"type":"Feature","geometry":{"type":"Point","coordinates":[-0.0806,43.109]},"properties":{"name":"Lourdes","pop":13266,"capital":false,"iso":"FR","rank":4,"dept":"65","deptRank":2}},{"type":"Feature","geometry":{"type":"Point","coordinates":[2.9045,42.699]},"properties":{"name":"Perpignan","pop":121616,"capital":false,"iso":"FR","rank":3,"dept":"66","deptRank":1}},{"type":"Feature","geometry":{"type":"Point","coordinates":[3.002,42.6809]},"properties":{"name":"Canet-en-Roussillon","pop":13227,"capital":false,"iso":"FR","rank":4,"dept":"66","deptRank":2}},{"type":"Feature","geometry":{"type":"Point","coordinates":[7.7621,48.5691]},"properties":{"name":"Strasbourg","pop":293771,"capital":false,"iso":"FR","rank":3,"dept":"67","deptRank":1}},{"type":"Feature","geometry":{"type":"Point","coordinates":[7.8213,48.8388]},"properties":{"name":"Haguenau","pop":36391,"capital":false,"iso":"FR","rank":4,"dept":"67","deptRank":2}},{"type":"Feature","geometry":{"type":"Point","coordinates":[7.3255,47.7526]},"properties":{"name":"Mulhouse","pop":104978,"capital":false,"iso":"FR","rank":3,"dept":"68","deptRank":1}},{"type":"Feature","geometry":{"type":"Point","coordinates":[7.3924,48.1115]},"properties":{"name":"Colmar","pop":66970,"capital":false,"iso":"FR","rank":4,"dept":"68","deptRank":2}},{"type":"Feature","geometry":{"type":"Point","coordinates":[4.8351,45.758]},"properties":{"name":"Lyon","pop":519127,"capital":false,"iso":"FR","rank":3,"dept":"69","deptRank":1}},{"type":"Feature","geometry":{"type":"Point","coordinates":[4.8898,45.7719]},"properties":{"name":"Villeurbanne","pop":163684,"capital":false,"iso":"FR","rank":4,"dept":"69","deptRank":2}},{"type":"Feature","geometry":{"type":"Point","coordinates":[6.1523,47.6323]},"properties":{"name":"Vesoul","pop":15078,"capital":false,"iso":"FR","rank":3,"dept":"70","deptRank":1}},{"type":"Feature","geometry":{"type":"Point","coordinates":[6.7594,47.5666]},"properties":{"name":"Héricourt","pop":10621,"capital":false,"iso":"FR","rank":4,"dept":"70","deptRank":2}},{"type":"Feature","geometry":{"type":"Point","coordinates":[4.8509,46.7896]},"properties":{"name":"Chalon-sur-Saône","pop":45102,"capital":false,"iso":"FR","rank":3,"dept":"71","deptRank":1}},{"type":"Feature","geometry":{"type":"Point","coordinates":[4.8083,46.3265]},"properties":{"name":"Mâcon","pop":35177,"capital":false,"iso":"FR","rank":4,"dept":"71","deptRank":2}},{"type":"Feature","geometry":{"type":"Point","coordinates":[0.1957,47.9819]},"properties":{"name":"Le Mans","pop":146249,"capital":false,"iso":"FR","rank":3,"dept":"72","deptRank":1}},{"type":"Feature","geometry":{"type":"Point","coordinates":[-0.0605,47.6908]},"properties":{"name":"La Flèche","pop":14947,"capital":false,"iso":"FR","rank":4,"dept":"72","deptRank":2}},{"type":"Feature","geometry":{"type":"Point","coordinates":[5.9064,45.5822]},"properties":{"name":"Chambéry","pop":59964,"capital":false,"iso":"FR","rank":3,"dept":"73","deptRank":1}},{"type":"Feature","geometry":{"type":"Point","coordinates":[5.9035,45.6943]},"properties":{"name":"Aix-les-Bains","pop":32406,"capital":false,"iso":"FR","rank":4,"dept":"73","deptRank":2}},{"type":"Feature","geometry":{"type":"Point","coordinates":[6.1264,45.9024]},"properties":{"name":"Annecy","pop":132117,"capital":false,"iso":"FR","rank":3,"dept":"74","deptRank":1}},{"type":"Feature","geometry":{"type":"Point","coordinates":[6.4776,46.3745]},"properties":{"name":"Thonon-les-Bains","pop":37928,"capital":false,"iso":"FR","rank":4,"dept":"74","deptRank":2}},{"type":"Feature","geometry":{"type":"Point","coordinates":[2.347,48.8589]},"properties":{"name":"Paris","pop":2103778,"capital":true,"iso":"FR","rank":1,"dept":"75","deptRank":1}},{"type":"Feature","geometry":{"type":"Point","coordinates":[0.1312,49.4958]},"properties":{"name":"Le Havre","pop":166687,"capital":false,"iso":"FR","rank":3,"dept":"76","deptRank":1}},{"type":"Feature","geometry":{"type":"Point","coordinates":[1.0912,49.4412]},"properties":{"name":"Rouen","pop":117662,"capital":false,"iso":"FR","rank":4,"dept":"76","deptRank":2}},{"type":"Feature","geometry":{"type":"Point","coordinates":[2.9035,48.9573]},"properties":{"name":"Meaux","pop":56905,"capital":false,"iso":"FR","rank":3,"dept":"77","deptRank":1}},{"type":"Feature","geometry":{"type":"Point","coordinates":[2.5954,48.8845]},"properties":{"name":"Chelles","pop":54620,"capital":false,"iso":"FR","rank":4,"dept":"77","deptRank":2}},{"type":"Feature","geometry":{"type":"Point","coordinates":[2.1191,48.8039]},"properties":{"name":"Versailles","pop":84095,"capital":false,"iso":"FR","rank":3,"dept":"78","deptRank":1}},{"type":"Feature","geometry":{"type":"Point","coordinates":[2.1744,48.9374]},"properties":{"name":"Sartrouville","pop":52763,"capital":false,"iso":"FR","rank":4,"dept":"78","deptRank":2}},{"type":"Feature","geometry":{"type":"Point","coordinates":[-0.4613,46.3274]},"properties":{"name":"Niort","pop":59854,"capital":false,"iso":"FR","rank":3,"dept":"79","deptRank":1}},{"type":"Feature","geometry":{"type":"Point","coordinates":[-0.4733,46.8654]},"properties":{"name":"Bressuire","pop":19970,"capital":false,"iso":"FR","rank":4,"dept":"79","deptRank":2}},{"type":"Feature","geometry":{"type":"Point","coordinates":[2.2847,49.8987]},"properties":{"name":"Amiens","pop":136449,"capital":false,"iso":"FR","rank":3,"dept":"80","deptRank":1}},{"type":"Feature","geometry":{"type":"Point","coordinates":[1.8319,50.1101]},"properties":{"name":"Abbeville","pop":22395,"capital":false,"iso":"FR","rank":4,"dept":"80","deptRank":2}},{"type":"Feature","geometry":{"type":"Point","coordinates":[2.1323,43.929]},"properties":{"name":"Albi","pop":51290,"capital":false,"iso":"FR","rank":3,"dept":"81","deptRank":1}},{"type":"Feature","geometry":{"type":"Point","coordinates":[2.2448,43.6132]},"properties":{"name":"Castres","pop":42505,"capital":false,"iso":"FR","rank":4,"dept":"81","deptRank":2}},{"type":"Feature","geometry":{"type":"Point","coordinates":[1.3646,44.0217]},"properties":{"name":"Montauban","pop":62945,"capital":false,"iso":"FR","rank":3,"dept":"82","deptRank":1}},{"type":"Feature","geometry":{"type":"Point","coordinates":[1.1211,44.0536]},"properties":{"name":"Castelsarrasin","pop":14343,"capital":false,"iso":"FR","rank":4,"dept":"82","deptRank":2}},{"type":"Feature","geometry":{"type":"Point","coordinates":[5.9334,43.1364]},"properties":{"name":"Toulon","pop":179116,"capital":false,"iso":"FR","rank":3,"dept":"83","deptRank":1}},{"type":"Feature","geometry":{"type":"Point","coordinates":[5.8789,43.0837]},"properties":{"name":"La Seyne-sur-Mer","pop":63732,"capital":false,"iso":"FR","rank":4,"dept":"83","deptRank":2}},{"type":"Feature","geometry":{"type":"Point","coordinates":[4.8333,43.9416]},"properties":{"name":"Avignon","pop":92188,"capital":false,"iso":"FR","rank":3,"dept":"84","deptRank":1}},{"type":"Feature","geometry":{"type":"Point","coordinates":[5.0584,44.0629]},"properties":{"name":"Carpentras","pop":31619,"capital":false,"iso":"FR","rank":4,"dept":"84","deptRank":2}},{"type":"Feature","geometry":{"type":"Point","coordinates":[-1.4162,46.6659]},"properties":{"name":"La Roche-sur-Yon","pop":54849,"capital":false,"iso":"FR","rank":3,"dept":"85","deptRank":1}},{"type":"Feature","geometry":{"type":"Point","coordinates":[-1.7611,46.5264]},"properties":{"name":"Les Sables-d'Olonne","pop":49603,"capital":false,"iso":"FR","rank":4,"dept":"85","deptRank":2}},{"type":"Feature","geometry":{"type":"Point","coordinates":[0.3715,46.5846]},"properties":{"name":"Poitiers","pop":89916,"capital":false,"iso":"FR","rank":3,"dept":"86","deptRank":1}},{"type":"Feature","geometry":{"type":"Point","coordinates":[0.5583,46.8147]},"properties":{"name":"Châtellerault","pop":31003,"capital":false,"iso":"FR","rank":4,"dept":"86","deptRank":2}},{"type":"Feature","geometry":{"type":"Point","coordinates":[1.226,45.8567]},"properties":{"name":"Limoges","pop":129937,"capital":false,"iso":"FR","rank":3,"dept":"87","deptRank":1}},{"type":"Feature","geometry":{"type":"Point","coordinates":[0.8853,45.8965]},"properties":{"name":"Saint-Junien","pop":11415,"capital":false,"iso":"FR","rank":4,"dept":"87","deptRank":2}},{"type":"Feature","geometry":{"type":"Point","coordinates":[6.4867,48.1637]},"properties":{"name":"Épinal","pop":32251,"capital":false,"iso":"FR","rank":3,"dept":"88","deptRank":1}},{"type":"Feature","geometry":{"type":"Point","coordinates":[6.9386,48.2973]},"properties":{"name":"Saint-Dié-des-Vosges","pop":19251,"capital":false,"iso":"FR","rank":4,"dept":"88","deptRank":2}},{"type":"Feature","geometry":{"type":"Point","coordinates":[3.5821,47.7939]},"properties":{"name":"Auxerre","pop":35097,"capital":false,"iso":"FR","rank":3,"dept":"89","deptRank":1}},{"type":"Feature","geometry":{"type":"Point","coordinates":[3.3039,48.1949]},"properties":{"name":"Sens","pop":27106,"capital":false,"iso":"FR","rank":4,"dept":"89","deptRank":2}},{"type":"Feature","geometry":{"type":"Point","coordinates":[6.841,47.6458]},"properties":{"name":"Belfort","pop":45912,"capital":false,"iso":"FR","rank":3,"dept":"90","deptRank":1}},{"type":"Feature","geometry":{"type":"Point","coordinates":[6.996,47.509]},"properties":{"name":"Delle","pop":5623,"capital":false,"iso":"FR","rank":4,"dept":"90","deptRank":2}},{"type":"Feature","geometry":{"type":"Point","coordinates":[2.4313,48.6287]},"properties":{"name":"Évry-Courcouronnes","pop":66919,"capital":false,"iso":"FR","rank":3,"dept":"91","deptRank":1}},{"type":"Feature","geometry":{"type":"Point","coordinates":[2.4646,48.5973]},"properties":{"name":"Corbeil-Essonnes","pop":54471,"capital":false,"iso":"FR","rank":4,"dept":"91","deptRank":2}},{"type":"Feature","geometry":{"type":"Point","coordinates":[2.2429,48.8375]},"properties":{"name":"Boulogne-Billancourt","pop":119019,"capital":false,"iso":"FR","rank":3,"dept":"92","deptRank":1}},{"type":"Feature","geometry":{"type":"Point","coordinates":[2.2018,48.8974]},"properties":{"name":"Nanterre","pop":97783,"capital":false,"iso":"FR","rank":4,"dept":"92","deptRank":2}},{"type":"Feature","geometry":{"type":"Point","coordinates":[2.3657,48.9378]},"properties":{"name":"Saint-Denis","pop":149077,"capital":false,"iso":"FR","rank":3,"dept":"93","deptRank":1}},{"type":"Feature","geometry":{"type":"Point","coordinates":[2.4491,48.8637]},"properties":{"name":"Montreuil","pop":111934,"capital":false,"iso":"FR","rank":4,"dept":"93","deptRank":2}},{"type":"Feature","geometry":{"type":"Point","coordinates":[2.3951,48.7893]},"properties":{"name":"Vitry-sur-Seine","pop":93963,"capital":false,"iso":"FR","rank":3,"dept":"94","deptRank":1}},{"type":"Feature","geometry":{"type":"Point","coordinates":[2.4523,48.7845]},"properties":{"name":"Créteil","pop":93397,"capital":false,"iso":"FR","rank":4,"dept":"94","deptRank":2}},{"type":"Feature","geometry":{"type":"Point","coordinates":[2.2478,48.9501]},"properties":{"name":"Argenteuil","pop":106130,"capital":false,"iso":"FR","rank":3,"dept":"95","deptRank":1}},{"type":"Feature","geometry":{"type":"Point","coordinates":[2.0455,49.0373]},"properties":{"name":"Cergy","pop":70906,"capital":false,"iso":"FR","rank":4,"dept":"95","deptRank":2}}]}